[{"OBJECT_NAME":"SUPERVIEW NEO-1 01","OBJECT_ID":"2022-043A","EPOCH":"2026-03-09T22:37:01.879104","MEAN_MOTION":15.15546982,"ECCENTRICITY":3.46e-5,"INCLINATION":97.3476,"RA_OF_ASC_NODE":144.9365,"ARG_OF_PERICENTER":232.358,"MEAN_ANOMALY":127.7621,"EPHEMERIS_TYPE":0,"CLASSIFICATION_TYPE":"U","NORAD_CAT_ID":52320,"ELEMENT_SET_NO":999,"REV_AT_EPOCH":21452,"BSTAR":0.00038664053,"MEAN_MOTION_DOT":7.269e-5,"MEAN_MOTION_DDOT":0},{"OBJECT_NAME":"STARLINK-5866","OBJECT_ID":"2023-094R","EPOCH":"2026-03-09T22:00:01.999584","MEAN_MOTION":15.13650488,"ECCENTRICITY":0.00017672,"INCLINATION":43.0008,"RA_OF_ASC_NODE":28.3845,"ARG_OF_PERICENTER":256.8275,"MEAN_ANOMALY":60.3723,"EPHEMERIS_TYPE":0,"CLASSIFICATION_TYPE":"U","NORAD_CAT_ID":57233,"ELEMENT_SET_NO":999,"REV_AT_EPOCH":577,"BSTAR":0.0044796567,"MEAN_MOTION_DOT":0.00082702,"MEAN_MOTION_DDOT":0}]
